STARLINK-36524          
1 67452U 26008H   26037.58335648 -.02059142  00000+0 -34337-1 0  9995
2 67452  42.9999  22.6821 0001364 268.7009 120.0217 15.54371611  4792
STARLINK-36518          
1 67453U 26008J   26037.58335648 -.02088841  00000+0 -31474-1 0  9993
2 67453  43.0001  22.2064 0000866 273.9013 301.8569 15.57134623  4818
STARLINK-36517          
1 67454U 26008K   26037.58335648 -.00147638  00000+0 -25528-2 0  9996
2 67454  43.0004  22.8817 0001083 256.5934  50.1314 15.50641631  4812
STARLINK-36516          
1 67455U 26008L   26037.58335648 -.02000438  00000+0 -35810-1 0  9999
2 67455  43.0002  22.7482 0001268 268.8628  92.5049 15.52346245  4796
STARLINK-36493          
1 67456U 26008M   26037.58335648 -.01839974  00000+0 -32289-1 0  9991
2 67456  43.0002  22.7204 0001173 268.4607 104.3692 15.53158641  4795
STARLINK-36529          
1 67457U 26008N   26037.58335648 -.02117662  00000+0 -30350-1 0  9993
2 67457  43.0004  22.5149 0001017 278.6410 176.7394 15.58495435  4798
STARLINK-36528          
1 67458U 26008P   26037.58335648 -.02105165  00000+0 -23814-1 0  9996
2 67458  43.0008  22.3340 0000968 265.0956 263.8034 15.65060790  4815
STARLINK-36546          
1 67459U 26008Q   26037.58335648 -.02116120  00000+0 -30264-1 0  9997
2 67459  43.0005  22.4985 0001020 277.7638 184.0845 15.58548325  4794
STARLINK-36523          
1 67460U 26008R   26037.58335648 -.02131866  00000+0 -29779-1 0  9992
2 67460  43.0002  22.4738 0001103 281.9522 189.9943 15.59186312  4811
STARLINK-36522          
1 67461U 26008S   26037.58335648 -.02294602  00000+0 -40960-1 0  9996
2 67461  43.0003  22.7116 0001425 275.2093 100.6743 15.52906108  4793
STARLINK-36504          
1 67462U 26008T   26035.00868680  .00209146  00000+0  13425-2 0  9991
2 67462  43.0000  37.8305 0002675 190.7377 169.3435 15.74843030  4396
STARLINK-36505          
1 67463U 26008U   26037.58335648 -.02135432  00000+0 -28014-1 0  9999
2 67463  43.0003  22.4118 0001030 273.3604 223.9645 15.60815288  4790
STARLINK-36421          
1 67464U 26008V   26037.58335648 -.02201322  00000+0 -39356-1 0  9993
2 67464  43.0004  22.7026 0001547 282.1039  97.3674 15.52707114  4790
STARLINK-36437          
1 67465U 26008W   26037.58335648 -.02134282  00000+0 -27578-1 0  9997
2 67465  43.0002  22.3901 0000905 271.9301 233.5970 15.61202917  4796
STARLINK-36520          
1 67466U 26008X   26037.58335648 -.02111803  00000+0 -31876-1 0  9998
2 67466  43.0000  22.5127 0001062 280.2905 175.3815 15.57122215  4793
STARLINK-36425          
1 67467U 26008Y   26037.58335648  .00019141  00000+0  33148-3 0  9993
2 67467  43.0000  22.8595 0000999 237.2461  77.8757 15.50562655  4793
STARLINK-36414          
1 67468U 26008Z   26037.58335648 -.02109868  00000+0 -34038-1 0  9991
2 67468  43.0002  22.3028 0001026 269.4465 269.6634 15.55346621  4798
STARLINK-36441          
1 67469U 26008AA  26037.58335648 -.01875089  00000+0 -34330-1 0  9991
2 67469  43.0004  22.4283 0001630 282.3006 205.3625 15.52062405  4790
STARLINK-36454          
1 67470U 26008AB  26037.58335648 -.02000872  00000+0 -33992-1 0  9997
2 67470  43.0005  22.3504 0001247 291.4069 228.5510 15.53775896  4798
STARLINK-36334          
1 67471U 26008AC  26037.58335648 -.02090971  00000+0 -31239-1 0  9999
2 67471  43.0004  22.2221 0000881 276.2286 295.0830 15.57363103  4790
STARLINK-36269          
1 67472U 26008AD  26037.58335648 -.02109865  00000+0 -33992-1 0  9991
2 67472  43.0003  22.2795 0000893 270.5981 276.7386 15.55384291  4812
STARLINK-36408          
1 67473U 26008AE  26037.58335648 -.02299948  00000+0 -40972-1 0  9990
2 67473  43.0001  22.3762 0000556 261.4705 246.7766 15.52979621  4818
ALSAT-3A                
1 67474U 26009A   26037.61118666  .00009571  00000+0  40404-3 0  9994
2 67474  97.4679 112.2805 0012322 177.1563 182.9746 15.23417433  3396
CZ-2C R/B               
1 67475U 26009B   26037.64807460  .00004530  00000+0  30462-3 0  9998
2 67475  97.1758 110.4773 0100344 145.2009 215.5835 15.03114135  3415
TIANQI-37               
1 67476U 26010A   26037.29855510  .00000372  00000+0  26656-3 0  9991
2 67476  44.9830 305.6702 0012954  60.0656 300.1468 14.13527209  3040
TIANQI-38               
1 67477U 26010B   26037.29465743  .00000411  00000+0  28492-3 0  9991
2 67477  44.9792 305.6411 0011782  65.3630 294.8434 14.13904375  3048
TIANQI-39               
1 67478U 26010C   26037.29895366  .00000366  00000+0  26541-3 0  9992
2 67478  44.9842 305.6745 0016496  72.1862 288.0775 14.13053936  3046
TIANQI-40               
1 67479U 26010D   26037.29490706  .00000420  00000+0  29034-3 0  9993
2 67479  44.9837 305.6492 0012363  73.1190 287.1003 14.13802640  3042
SZ-20 MODULE            
1 67481U 25082C   26037.00644919  .00030646  00000+0  33813-3 0  9993
2 67481  41.4797  40.4795 0006309 111.1873 248.9641 15.62391867272664
2025-313BE              
1 67482U 25313BE  26036.72310125  .00103503  00000+0  40965-2 0  9996
2 67482  97.4069 113.6274 0008903 100.3384 259.8858 15.24973835  3091
ION SCV-021             
1 67483U 25276DT  26034.18636465  .00001099  00000+0  99302-4 0  9999
2 67483  97.5400 109.5002 0011491 211.3853 148.6685 14.97380347  2557
STARLINK-36551          
1 67493U 26012A   26037.58335648 -.01941826  00000+0 -17695-1 0  9991
2 67493  42.9987 132.3285 0001140 284.4969 258.3862 15.70022956  4063
STARLINK-36396          
1 67494U 26012B   26037.58335648 -.02322692  00000+0 -36800-1 0  9996
2 67494  42.9991 132.7698 0001484 277.1331  87.8676 15.56166800  4063
STARLINK-36550          
1 67495U 26012C   26037.58335648 -.02359951  00000+0 -25922-1 0  9998
2 67495  42.9988 132.4337 0001056 291.7986 208.6627 15.65613959  4061
STARLINK-36534          
1 67496U 26012D   26037.58335648 -.01942791  00000+0 -18371-1 0  9998
2 67496  42.9988 132.3132 0001089 283.4954 265.2871 15.69143764  4014
STARLINK-36555          
1 67497U 26012E   26037.58335648 -.01942755  00000+0 -18438-1 0  9993
2 67497  42.9992 132.3273 0001125 285.9438 257.2964 15.69055727  4061
STARLINK-36081          
1 67498U 26012F   26037.58335648 -.02360432  00000+0 -26459-1 0  9993
2 67498  42.9988 132.4153 0001089 289.8991 217.6219 15.65112477  4011
STARLINK-36558          
1 67499U 26012G   26037.58335648 -.02365308  00000+0 -26531-1 0  9992
2 67499  42.9988 132.4084 0001012 294.3840 215.8106 15.65104485  4065
STARLINK-36557          
1 67500U 26012H   26037.58335648 -.01945279  00000+0 -16002-1 0  9997
2 67500  42.9989 132.1996 0001178 282.4096 311.5580 15.72428944  4069
STARLINK-36433          
1 67501U 26012J   26037.58335648 -.01939459  00000+0 -15703-1 0  9998
2 67501  42.9989 132.1816 0001247 278.7897 322.3145 15.72786761  4066
STARLINK-36554          
1 67502U 26012K   26037.58335648 -.01943578  00000+0 -19236-1 0  9991
2 67502  42.9987 132.2916 0001227 283.4566 274.2232 15.68048357  4015
STARLINK-36552          
1 67503U 26012L   26037.58335648 -.01902882  00000+0 -15043-1 0  9997
2 67503  42.9989 132.1402 0001196 281.7925 335.7890 15.73806766  4062
STARLINK-36512          
1 67504U 26012M   26037.58335648 -.01941872  00000+0 -16405-1 0  9993
2 67504  42.9990 132.1661 0001187 281.5491 325.4673 15.71804611  4068
STARLINK-36545          
1 67505U 26012N   26037.58335648 -.01939593  00000+0 -15993-1 0  9992
2 67505  42.9989 132.1466 0001204 278.3992 336.5062 15.72365710  4068
STARLINK-36553          
1 67506U 26012P   26037.58335648 -.01899507  00000+0 -15072-1 0  9991
2 67506  42.9990 132.1097 0001349 275.6201 354.0508 15.73714247  4068
STARLINK-36521          
1 67507U 26012Q   26037.58335648 -.01904420  00000+0 -15144-1 0  9993
2 67507  42.9989 132.0966 0001378 278.6053 356.1632 15.73672394  4068
STARLINK-36526          
1 67508U 26012R   26037.58335648 -.01902292  00000+0 -15140-1 0  9995
2 67508  42.9990 132.0825 0001219 277.5477   2.7906 15.73651793  4065
STARLINK-36541          
1 67509U 26012S   26037.58335648 -.02187560  00000+0 -34121-1 0  9990
2 67509  42.9994 132.6282 0001654 277.9673 143.0415 15.56365119  4012
STARLINK-36549          
1 67510U 26012T   26037.58335648 -.01938524  00000+0 -16148-1 0  9994
2 67510  42.9992 131.8845 0001437 282.7279  74.8226 15.72124251  4012
STARLINK-36540          
1 67511U 26012U   26037.58335648 -.02334411  00000+0 -36338-1 0  9994
2 67511  42.9991 132.6071 0001381 291.9990 137.6127 15.56656014  4075
STARLINK-36538          
1 67512U 26012V   26037.58335648 -.01928727  00000+0 -18052-1 0  9996
2 67512  42.9991 132.1463 0001270 278.4561 336.2128 15.69364551  4071
STARLINK-36531          
1 67513U 26012W   26037.58335648 -.01937155  00000+0 -17474-1 0  9999
2 67513  42.9992 132.1133 0001359 277.8147 350.5088 15.70254332  4013
STARLINK-36530          
1 67514U 26012X   26037.58335648 -.01938596  00000+0 -18203-1 0  9991
2 67514  42.9990 132.1230 0001328 277.0614 347.0849 15.69302687  4018
STARLINK-36543          
1 67515U 26012Y   26037.58335648 -.01933386  00000+0 -18926-1 0  9996
2 67515  42.9990 132.1374 0001328 275.0107 343.1310 15.68295513  4011
STARLINK-36537          
1 67516U 26012Z   26037.58335648 -.01940071  00000+0 -17439-1 0  9994
2 67516  42.9992 132.0485 0001351 280.1647  13.0698 15.70341953  4013
STARLINK-36544          
1 67517U 26012AA  26037.58335648 -.01928236  00000+0 -16668-1 0  9997
2 67517  42.9991 132.0414 0001505 275.8666  19.1640 15.71242607  4075
STARLINK-36412          
1 67518U 26012AB  26037.58335648 -.01930746  00000+0 -17254-1 0  9999
2 67518  42.9992 132.0034 0001447 280.5931  30.7665 15.70463606  4011
STARLINK-36415          
1 67519U 26012AC  26037.58335648 -.01936637  00000+0 -17166-1 0  9997
2 67519  42.9993 131.9811 0001483 276.5822  43.1648 15.70665733  4225
STARLINK-36547          
1 67520U 26012AD  26037.58335648 -.01936932  00000+0 -17447-1 0  9999
2 67520  42.9992 132.0191 0001464 278.3312  26.5956 15.70286039  4014
